[{"OBJECT_NAME":"STARLINK-3278","OBJECT_ID":"2022-001AD","EPOCH":"2026-03-09T14:01:01.610688","MEAN_MOTION":15.08837852,"ECCENTRICITY":0.0001409,"INCLINATION":53.218,"RA_OF_ASC_NODE":179.599,"ARG_OF_PERICENTER":80.1291,"MEAN_ANOMALY":279.9861,"EPHEMERIS_TYPE":0,"CLASSIFICATION_TYPE":"U","NORAD_CAT_ID":50830,"ELEMENT_SET_NO":999,"REV_AT_EPOCH":23025,"BSTAR":-6.1621e-6,"MEAN_MOTION_DOT":-3.86e-6,"MEAN_MOTION_DDOT":0},{"OBJECT_NAME":"CZ-6A DEB","OBJECT_ID":"2024-140UQ","EPOCH":"2026-03-09T14:36:35.114400","MEAN_MOTION":15.29987293,"ECCENTRICITY":0.0094347,"INCLINATION":89.0483,"RA_OF_ASC_NODE":279.5661,"ARG_OF_PERICENTER":66.0307,"MEAN_ANOMALY":295.0787,"EPHEMERIS_TYPE":0,"CLASSIFICATION_TYPE":"U","NORAD_CAT_ID":61327,"ELEMENT_SET_NO":999,"REV_AT_EPOCH":8299,"BSTAR":0.0015211,"MEAN_MOTION_DOT":0.00050856,"MEAN_MOTION_DDOT":0}]
